      2.10          N: GNSS NAV DATA                        RINEX VERSION / TYPE
fic2rin                                 09/10/2020 00:17:43 PGM / RUN BY / DATE
                                                            END OF HEADER
31 20  9  9  9 59 44.0-6.757490336895e-05-2.387423592154e-12 0.000000000000e+00
    3.000000000000e+01 4.765625000000e+01 4.498044504465e-09-8.566288662136e-01
    2.451241016388e-06 9.645406971686e-03 8.389353752136e-06 5.153651575089e+03
    2.951840000000e+05 1.955777406693e-07-1.927774702846e+00-1.266598701477e-07
    9.569184266249e-01 2.099375000000e+02 1.562810441328e-01-8.025334287386e-09
    2.785830326729e-11 1.000000000000e+00 2.122000000000e+03 0.000000000000e+00
    2.400000000000e+00 0.000000000000e+00-1.303851604462e-08 3.000000000000e+01
    2.880000000000e+05 4.000000000000e+00
20 20  9  9  9 59 44.0 5.267919041216e-04-1.136868377216e-13 0.000000000000e+00
    1.600000000000e+01-1.378125000000e+01 5.161286416868e-09-3.347218841786e-01
   -8.214265108109e-07 5.575265269727e-03 7.482245564461e-06 5.153658281326e+03
    2.951840000000e+05 7.264316082001e-08 2.098142252458e+00-1.639127731323e-07
    9.350041976036e-01 2.268750000000e+02 2.701445465384e+00-8.384277810253e-09
    9.607543049875e-11 1.000000000000e+00 2.122000000000e+03 0.000000000000e+00
    2.400000000000e+00 0.000000000000e+00-8.847564458847e-09 1.600000000000e+01
    2.880000000000e+05 4.000000000000e+00
 2 20  9  9 10  0  0.0-5.140006542206e-04-5.229594535194e-12 0.000000000000e+00
    4.300000000000e+01-4.196875000000e+01 4.643764860017e-09 4.067013201710e-01
   -2.175569534302e-06 1.980349526275e-02 8.232891559601e-06 5.153774988174e+03
    2.952000000000e+05-2.570450305939e-07 1.116884201521e+00-7.078051567078e-08
    9.601509035791e-01 2.281562500000e+02-1.605736491039e+00-8.457495145763e-09
   -5.464513333200e-11 1.000000000000e+00 2.122000000000e+03 0.000000000000e+00
    2.400000000000e+00 0.000000000000e+00-1.769512891769e-08 4.300000000000e+01
    2.880000000000e+05 4.000000000000e+00
 1 20  9  9 10  0  0.0 3.608176484704e-05 1.136868377216e-13 0.000000000000e+00
    4.200000000000e+01-4.315625000000e+01 4.088384583343e-09 1.701839709483e-01
   -2.143904566765e-06 1.008851116057e-02 8.733943104744e-06 5.153704170227e+03
    2.952000000000e+05-1.862645149231e-08 1.195338599245e+00 1.322478055954e-07
    9.812013292138e-01 2.192500000000e+02 8.261824849481e-01-7.988189883030e-09
    8.928943354902e-12 1.000000000000e+00 2.122000000000e+03 0.000000000000e+00
    3.400000000000e+00 0.000000000000e+00 5.122274160385e-09 4.200000000000e+01
    2.880000000000e+05 4.000000000000e+00
 7 20  9  9 10  0  0.0-3.686696290970e-04-8.185452315956e-12 0.000000000000e+00
    5.100000000000e+01 5.578125000000e+01 4.657336853917e-09-5.280182023518e-01
    3.105029463768e-06 1.421151345130e-02 9.177252650261e-06 5.153646598816e+03
    2.952000000000e+05 6.891787052155e-08-1.943769258729e+00 2.067536115646e-07
    9.525284084259e-01 1.996875000000e+02-2.367091038432e+00-8.258915445550e-09
   -2.250093725435e-11 1.000000000000e+00 2.122000000000e+03 0.000000000000e+00
    2.400000000000e+00 0.000000000000e+00-1.117587089539e-08 5.100000000000e+01
    2.880000000000e+05 4.000000000000e+00
 6 20  9  9 10  0  0.0-3.240457735956e-04-3.524291969370e-12 0.000000000000e+00
    3.400000000000e+01-5.509375000000e+01 3.951950328880e-09 5.135286585527e-01
   -2.840533852577e-06 1.775026088580e-03 8.529052138329e-06 5.153615537643e+03
    2.952000000000e+05-2.607703208923e-08 1.187087135630e+00-1.676380634308e-08
    9.807384092685e-01 2.279687500000e+02-1.115471719006e+00-7.817825643818e-09
    4.357324357192e-11 1.000000000000e+00 2.122000000000e+03 0.000000000000e+00
    2.400000000000e+00 0.000000000000e+00 4.190951585770e-09 3.400000000000e+01
    2.880000000000e+05 4.000000000000e+00
 8 20  9  9 10  0  0.0-4.734750837088e-05-1.250555214938e-12 0.000000000000e+00
    1.700000000000e+01-3.778125000000e+01 4.536974697493e-09 2.479446087385e+00
   -1.827254891396e-06 5.448362557217e-03 5.127862095833e-06 5.153719547272e+03
    2.952000000000e+05-1.583248376846e-07 1.244837106862e-01 1.415610313416e-07
    9.694191493873e-01 2.849375000000e+02-6.477604492513e-02-8.161411384115e-09
   -9.964700784071e-11 1.000000000000e+00 2.122000000000e+03 0.000000000000e+00
    2.400000000000e+00 0.000000000000e+00 5.122274160385e-09 1.700000000000e+01
    2.880000000000e+05 4.000000000000e+00
 4 20  9  9 10  0  0.0-1.339712180197e-04-4.206412995700e-12 0.000000000000e+00
    4.000000000000e+00-1.437500000000e+01 4.536260382024e-09 1.592490739209e+00
   -6.984919309616e-07 8.150212233886e-04 8.078292012215e-06 5.153631349564e+03
    2.952000000000e+05-4.097819328308e-08-2.968507746812e+00-1.862645149231e-08
    9.605028202264e-01 2.242500000000e+02-2.826982702377e+00-7.949259690002e-09
   -2.021512775550e-10 1.000000000000e+00 2.122000000000e+03 0.000000000000e+00
    2.400000000000e+00 0.000000000000e+00-4.190951585770e-09 5.160000000000e+02
    2.880000000000e+05 4.000000000000e+00
11 20  9  9 10  0  0.0-1.692767255008e-04 1.057287590811e-11 0.000000000000e+00
    2.700000000000e+01-6.118750000000e+01 5.748453731886e-09-3.582343409611e-01
   -3.157183527946e-06 1.595339074265e-02 7.212162017822e-06 5.153722560883e+03
    2.952000000000e+05-1.620501279831e-07 7.139594175384e-01-9.872019290924e-08
    9.134533618219e-01 2.156250000000e+02 2.039889486522e+00-8.976802491284e-09
    1.464346710204e-11 1.000000000000e+00 2.122000000000e+03 0.000000000000e+00
    2.400000000000e+00 0.000000000000e+00-1.210719347000e-08 2.700000000000e+01
    2.880000000000e+05 4.000000000000e+00
12 20  9  9 10  0  0.0 6.955815479159e-05-5.002220859751e-12 0.000000000000e+00
    7.400000000000e+01 5.150000000000e+01 4.380182452181e-09-1.224355406723e+00
    2.954155206680e-06 7.899664924480e-03 5.509704351425e-06 5.153634244919e+03
    2.952000000000e+05 6.332993507385e-08-8.357714696936e-01 1.750886440277e-07
    9.768337521781e-01 2.840312500000e+02 1.169990273900e+00-8.073550581502e-09
    1.014327965117e-10 1.000000000000e+00 2.122000000000e+03 0.000000000000e+00
    2.400000000000e+00 0.000000000000e+00-1.210719347000e-08 7.400000000000e+01
    2.880000000000e+05 4.000000000000e+00
29 20  9  9 10  0  0.0-1.909472048283e-04-8.071765478235e-12 0.000000000000e+00
    1.200000000000e+01-3.128125000000e+01 4.127671934104e-09 2.441830323509e+00
   -1.512467861176e-06 1.605866942555e-03 5.591660737991e-06 5.153755989075e+03
    2.952000000000e+05 1.285225152969e-07 2.105718446254e-01-3.725290298462e-08
    9.855665377851e-01 2.835625000000e+02 2.214251719740e+00-7.987475567561e-09
   -1.092902666640e-10 1.000000000000e+00 2.122000000000e+03 0.000000000000e+00
    2.400000000000e+00 0.000000000000e+00-1.024454832077e-08 1.200000000000e+01
    2.880000000000e+05 4.000000000000e+00
24 20  9  9 10  0  0.0-1.834286376834e-05-5.684341886081e-13 0.000000000000e+00
    1.700000000000e+01 3.703125000000e+01 5.049496046064e-09 4.748682819300e-01
    1.948326826096e-06 1.003104669508e-02 8.778646588326e-06 5.153639844894e+03
    2.952000000000e+05-7.450580596924e-08-2.017705954763e+00 2.216547727585e-07
    9.358867000090e-01 1.995625000000e+02 6.755836545538e-01-8.349276352302e-09
   -1.132190017402e-10 1.000000000000e+00 2.122000000000e+03 0.000000000000e+00
    2.400000000000e+00 0.000000000000e+00 2.793967723846e-09 1.700000000000e+01
    2.880000000000e+05 4.000000000000e+00
22 20  9  9 10  0  0.0-7.562316022813e-04 3.865352482535e-12 0.000000000000e+00
    1.200000000000e+01-1.371875000000e+01 5.350222858257e-09 1.362266949875e+00
   -9.480863809586e-07 6.765778874978e-03 6.793066859245e-06 5.153735765457e+03
    2.952000000000e+05 1.378357410431e-07 2.145270386597e+00-8.381903171539e-08
    9.317248048665e-01 2.303437500000e+02-1.093291295948e+00-8.416422006331e-09
    1.614352958566e-10 1.000000000000e+00 2.122000000000e+03 0.000000000000e+00
    2.400000000000e+00 0.000000000000e+00-1.816079020500e-08 1.200000000000e+01
    2.880000000000e+05 4.000000000000e+00
21 20  9  9 10  0  0.0 4.516355693340e-05 4.206412995700e-12 0.000000000000e+00
    1.100000000000e+01-4.206250000000e+01 4.470900516667e-09-2.912078904712e+00
   -2.084299921989e-06 2.378439647146e-02 7.970258593559e-06 5.155048866272e+03
    2.952000000000e+05 2.309679985046e-07 1.118552500133e+00 3.091990947723e-07
    9.541798498322e-01 2.139062500000e+02-1.291910131414e+00-7.668533710924e-09
    1.096474243982e-10 1.000000000000e+00 2.122000000000e+03 0.000000000000e+00
    2.400000000000e+00 0.000000000000e+00-1.024454832077e-08 1.100000000000e+01
    2.880000000000e+05 4.000000000000e+00
13 20  9  9 10  0  0.0 4.361104220152e-05 3.524291969370e-12 0.000000000000e+00
    2.700000000000e+01-8.406250000000e+00 4.368396246952e-09 1.683514202838e+00
   -4.731118679047e-07 4.468366620131e-03 8.182600140572e-06 5.153689699173e+03
    2.952000000000e+05-6.705522537231e-08-2.872772746310e+00-6.891787052155e-08
    9.682917149966e-01 2.256562500000e+02 1.046416891784e+00-7.955688529218e-09
   -1.571494030463e-10 1.000000000000e+00 2.122000000000e+03 0.000000000000e+00
    2.400000000000e+00 0.000000000000e+00-1.117587089539e-08 2.700000000000e+01
    2.880000000000e+05 4.000000000000e+00
30 20  9  9 10  0  0.0-2.984111197293e-04-7.162270776462e-12 0.000000000000e+00
    5.300000000000e+01 5.490625000000e+01 4.932348309248e-09-5.653768130251e-01
    2.909451723099e-06 4.785801516846e-03 9.212642908096e-06 5.153597543716e+03
    2.952000000000e+05 8.009374141693e-08-1.922680751874e+00 7.450580596924e-09
    9.378040282392e-01 1.869687500000e+02-2.808104840289e+00-8.266772915703e-09
   -2.750114553310e-11 1.000000000000e+00 2.122000000000e+03 0.000000000000e+00
    2.400000000000e+00 0.000000000000e+00 3.725290298462e-09 5.300000000000e+01
    2.880000000000e+05 4.000000000000e+00
